NORAD_CAT_ID,OBJECT_NAME,OBJECT_TYPE,EPOCH,MEAN_MOTION,ECCENTRICITY,INCLINATION,RA_OF_ASC_NODE,ARG_OF_PERICENTER,MEAN_ANOMALY,BSTAR,MEAN_MOTION_DOT,MEAN_MOTION_DDOT,TLE_LINE0,TLE_LINE1,TLE_LINE2,SEMIMAJOR_AXIS,PERIOD,APOGEE,PERIGEE,DECAYED
53782.0,STARLINK-4679,PAYLOAD,2024-07-09 12:43:19,15.08850706,0.0001421,53.2173,124.3335,84.3004,275.815,0.00014452,2.013e-05,0.0,0 STARLINK-4679,1 53782U 22111K   24191.53009230  .00002013  00000-0  14452-3 0  9996,2 53782  53.2173 124.3335 0001421  84.3004 275.8150 15.08850706101073,6917.848,95.437,540.696,538.73,0.0
53782.0,STARLINK-4679,PAYLOAD,2024-07-10 04:37:12,15.08841091,0.0001352,53.2168,121.3594,89.3946,270.7201,2.7201e-05,1.45e-06,0.0,0 STARLINK-4679,1 53782U 22111K   24192.19250231  .00000145  00000-0  27201-4 0  9999,2 53782  53.2168 121.3594 0001352  89.3946 270.7201 15.08841091101173,6917.877,95.437,540.677,538.807,0.0
53782.0,STARLINK-4679,PAYLOAD,2024-07-10 12:34:07,15.0884678,0.0001343,53.2161,119.8729,89.9913,270.1232,0.0001234,1.677e-05,0.0,0 STARLINK-4679,1 53782U 22111K   24192.52369593  .00001677  00000-0  12340-3 0  9996,2 53782  53.2161 119.8729 0001343  89.9913 270.1232 15.08846780102032,6917.86,95.437,540.654,538.796,0.0
53782.0,STARLINK-4679,PAYLOAD,2024-07-11 04:27:59,15.08843405,0.00015,53.2158,116.898,98.7074,261.4088,0.00012373,1.682e-05,0.0,0 STARLINK-4679,1 53782U 22111K   24193.18610082  .00001682  00000-0  12373-3 0  9993,2 53782  53.2158 116.8980 0001500  98.7074 261.4088 15.08843405101329,6917.87,95.437,540.773,538.697,0.0
53782.0,STARLINK-4679,PAYLOAD,2024-07-12 12:15:41,15.08846586,0.0001534,53.2175,110.9502,92.2784,267.8384,0.00016093,2.275e-05,0.0,0 STARLINK-4679,1 53782U 22111K   24194.51089818  .00002275  00000-0  16093-3 0  9990,2 53782  53.2175 110.9502 0001534  92.2784 267.8384 15.08846586101521,6917.86,95.437,540.786,538.664,0.0
53782.0,STARLINK-4679,PAYLOAD,2024-07-12 21:48:00,15.08840237,0.0001935,53.2185,109.1656,107.8957,252.2246,7.6452e-05,9.29e-06,0.0,0 STARLINK-4679,1 53782U 22111K   24194.90834260  .00000929  00000-0  76452-4 0  9992,2 53782  53.2185 109.1656 0001935 107.8957 252.2246 15.08840237102390,6917.88,95.438,541.083,538.406,0.0
53782.0,STARLINK-4679,PAYLOAD,2024-07-13 00:58:47,15.08835396,0.0001605,53.2172,108.5719,98.3371,261.7803,1.0164e-05,-1.26e-06,0.0,0 STARLINK-4679,1 53782U 22111K   24195.04082493 -.00000126  00000-0  10164-4 0  9999,2 53782  53.2172 108.5719 0001605  98.3371 261.7803 15.08835396101604,6917.894,95.438,540.87,538.649,0.0
53782.0,STARLINK-4679,PAYLOAD,2024-07-13 21:38:47,15.08842549,0.0001478,53.2173,104.7084,96.2288,263.8872,0.00014994,2.099e-05,0.0,0 STARLINK-4679,1 53782U 22111K   24195.90194309  .00002099  00000-0  14994-3 0  9998,2 53782  53.2173 104.7084 0001478  96.2288 263.8872 15.08842549102541,6917.873,95.437,540.76,538.715,0.0
53782.0,STARLINK-4679,PAYLOAD,2024-07-14 04:00:20,15.08848452,0.0001271,53.2162,103.5195,86.7955,273.3182,0.00022218,3.251e-05,0.0,0 STARLINK-4679,1 53782U 22111K   24196.16690060  .00003251  00000-0  22218-3 0  9991,2 53782  53.2162 103.5195 0001271  86.7955 273.3182 15.08848452101778,6917.855,95.437,540.599,538.84,0.0
53782.0,STARLINK-4679,PAYLOAD,2024-07-14 10:21:52,15.08858235,0.0001347,53.2171,102.3313,90.2692,269.8454,0.00034185,5.159e-05,0.0,0 STARLINK-4679,1 53782U 22111K   24196.43185467  .00005159  00000-0  34185-3 0  9996,2 53782  53.2171 102.3313 0001347  90.2692 269.8454 15.08858235102626,6917.825,95.436,540.621,538.758,0.0
53782.0,STARLINK-4679,PAYLOAD,2024-07-14 21:29:35,15.08833995,0.000137,53.2174,100.2479,101.9204,258.1942,1.7487e-05,-1e-07,0.0,0 STARLINK-4679,1 53782U 22111K   24196.89554577 -.00000010  00000-0  17487-4 0  9997,2 53782  53.2174 100.2479 0001370 101.9204 258.1942 15.08833995101880,6917.899,95.438,540.711,538.816,0.0
53782.0,STARLINK-4679,PAYLOAD,2024-07-15 10:12:39,15.08860446,0.0001119,53.2162,97.8655,87.1855,272.9265,0.00048006,7.365e-05,0.0,0 STARLINK-4679,1 53782U 22111K   24197.42545491  .00007365  00000-0  48006-3 0  9991,2 53782  53.2162  97.8655 0001119  87.1855 272.9265 15.08860446101964,6917.818,95.436,540.457,538.909,0.0
53782.0,STARLINK-4679,PAYLOAD,2024-07-15 21:20:22,15.08832351,0.0001363,53.2172,95.7888,95.5937,264.5211,-0.00016825,-2.964e-05,0.0,0 STARLINK-4679,1 53782U 22111K   24197.88914360 -.00002964  00000-0 -16825-3 0  9992,2 53782  53.2172  95.7888 0001363  95.5937 264.5211 15.08832351102036,6917.904,95.438,540.712,538.826,0.0
53782.0,STARLINK-4679,PAYLOAD,2024-07-15 22:55:45,15.08831518,0.0001378,53.2169,95.4913,98.3444,261.7705,-7.6385e-05,-1.503e-05,0.0,0 STARLINK-4679,1 53782U 22111K   24197.95538354 -.00001503  00000-0 -76385-4 0  9991,2 53782  53.2169  95.4913 0001378  98.3444 261.7705 15.08831518102859,6917.906,95.438,540.725,538.818,0.0
53782.0,STARLINK-4679,PAYLOAD,2024-07-16 00:31:08,15.08836547,0.0001369,53.2162,95.1939,101.5841,258.5305,2.3776e-05,9e-07,0.0,0 STARLINK-4679,1 53782U 22111K   24198.02162319  .00000090  00000-0  23776-4 0  9998,2 53782  53.2162  95.1939 0001369 101.5841 258.5305 15.08836547102863,6917.891,95.438,540.703,538.809,0.0
53782.0,STARLINK-4679,PAYLOAD,2024-07-16 21:11:08,15.08855035,0.0001444,53.2167,91.3305,111.681,248.4336,0.00088829,0.00013883,0.0,0 STARLINK-4679,1 53782U 22111K   24198.88274225  .00013883  00000-0  88829-3 0  9995,2 53782  53.2167  91.3305 0001444 111.6810 248.4336 15.08855035102185,6917.834,95.437,540.698,538.7,0.0
53782.0,STARLINK-4679,PAYLOAD,2024-07-17 09:54:13,15.08859819,0.0001436,53.2171,88.9498,90.3117,269.8039,0.00091697,0.00014344,0.0,0 STARLINK-4679,1 53782U 22111K   24199.41265753  .00014344  00000-0  91697-3 0  9991,2 53782  53.2171  88.9498 0001436  90.3117 269.8039 15.08859819102269,6917.82,95.436,540.678,538.691,0.0
53782.0,STARLINK-4679,PAYLOAD,2024-07-17 21:01:56,15.08828378,0.0001174,53.216,86.8655,120.1372,239.9737,-0.00013782,-2.48e-05,0.0,0 STARLINK-4679,1 53782U 22111K   24199.87634400 -.00002480  00000-0 -13782-3 0  9999,2 53782  53.2160  86.8655 0001174 120.1372 239.9737 15.08828378102330,6917.916,95.438,540.593,538.969,0.0
53782.0,STARLINK-4679,PAYLOAD,2024-07-17 22:37:19,15.08831316,0.0001204,53.216,86.5671,100.2998,259.813,0.00031207,4.681e-05,0.0,0 STARLINK-4679,1 53782U 22111K   24199.94258521  .00004681  00000-0  31207-3 0  9998,2 53782  53.2160  86.5671 0001204 100.2998 259.8130 15.08831316103157,6917.907,95.438,540.605,538.939,0.0
53782.0,STARLINK-4679,PAYLOAD,2024-07-18 09:45:01,15.08855209,0.0001104,53.2155,84.4854,113.4949,246.6159,0.0021429,0.00033995,0.0,0 STARLINK-4679,1 53782U 22111K   24200.40626570  .00033995  00000-0  21429-2 0  9999,2 53782  53.2155  84.4854 0001104 113.4949 246.6159 15.08855209102412,6917.834,95.437,540.463,538.935,0.0
53782.0,STARLINK-4679,PAYLOAD,2024-07-18 22:28:07,15.08828627,0.0001443,53.2167,82.1072,101.702,258.4134,0.00080469,0.00012538,0.0,0 STARLINK-4679,1 53782U 22111K   24200.93619329  .00012538  00000-0  80469-3 0  9991,2 53782  53.2167  82.1072 0001443 101.7020 258.4134 15.08828627103305,6917.915,95.438,540.778,538.782,0.0
53782.0,STARLINK-4679,PAYLOAD,2024-07-19 09:35:48,15.08854148,0.0001616,53.2179,80.0209,121.8717,238.2433,0.0012638,0.0001989,0.0,0 STARLINK-4679,1 53782U 22111K   24201.39986925  .00019890  00000-0  12638-2 0  9991,2 53782  53.2179  80.0209 0001616 121.8717 238.2433 15.08854148102567,6917.837,95.437,540.82,538.584,0.0
53782.0,STARLINK-4679,PAYLOAD,2024-07-19 20:43:30,15.08844463,0.0002323,53.2177,77.9362,137.86,222.2572,0.00039857,6.062e-05,0.0,0 STARLINK-4679,1 53782U 22111K   24201.86354917  .00006062  00000-0  39857-3 0  9993,2 53782  53.2177  77.9362 0002323 137.8600 222.2572 15.08844463102638,6917.867,95.437,541.339,538.125,0.0
53782.0,STARLINK-4679,PAYLOAD,2024-07-19 22:18:54,15.08841303,0.000146,53.218,77.6461,99.4955,260.6202,0.00013869,1.92e-05,0.0,0 STARLINK-4679,1 53782U 22111K   24201.92979192  .00001920  00000-0  13869-3 0  9991,2 53782  53.2180  77.6461 0001460  99.4955 260.6202 15.08841303103453,6917.876,95.437,540.751,538.731,0.0
53782.0,STARLINK-4679,PAYLOAD,2024-07-20 01:29:40,15.08841439,0.0001405,53.2175,77.0496,107.2046,252.91,0.00038306,5.814e-05,0.0,0 STARLINK-4679,1 53782U 22111K   24202.06227147  .00005814  00000-0  38306-3 0  9992,2 53782  53.2175  77.0496 0001405 107.2046 252.9100 15.08841439103470,6917.876,95.437,540.713,538.769,0.0
53782.0,STARLINK-4679,PAYLOAD,2024-07-20 20:34:18,15.08844299,0.0001292,53.2159,73.479,98.9731,261.1407,0.0001385,1.917e-05,0.0,0 STARLINK-4679,1 53782U 22111K   24202.85715281  .00001917  00000-0  13850-3 0  9997,2 53782  53.2159  73.4790 0001292  98.9731 261.1407 15.08844299102782,6917.867,95.437,540.626,538.838,0.0
53782.0,STARLINK-4679,PAYLOAD,2024-07-20 22:09:41,15.08843396,0.00012,53.2157,73.1816,103.6496,256.463,0.00022704,3.328e-05,0.0,0 STARLINK-4679,1 53782U 22111K   24202.92339306  .00003328  00000-0  22704-3 0  9991,2 53782  53.2157  73.1816 0001200 103.6496 256.4630 15.08843396103601,6917.87,95.437,540.565,538.905,0.0
53782.0,STARLINK-4679,PAYLOAD,2024-07-21 02:55:50,15.08850002,9.99e-05,53.2165,72.2962,94.7636,265.347,0.00024029,3.54e-05,0.0,0 STARLINK-4679,1 53782U 22111K   24203.12210928  .00003540  00000-0  24029-3 0  9990,2 53782  53.2165  72.2962 0000999  94.7636 265.3470 15.08850002103638,6917.85,95.437,540.406,539.024,0.0
53782.0,STARLINK-4679,PAYLOAD,2024-07-21 20:25:05,15.08837536,0.0001212,53.2168,69.0251,98.8579,261.255,9.3533e-05,1.201e-05,0.0,0 STARLINK-4679,1 53782U 22111K   24203.85075494  .00001201  00000-0  93533-4 0  9996,2 53782  53.2168  69.0251 0001212  98.8579 261.2550 15.08837536102939,6917.888,95.438,540.591,538.914,0.0
53782.0,STARLINK-4679,PAYLOAD,2024-07-21 22:00:28,15.08838943,0.0001245,53.2168,68.7278,100.0679,260.0454,5.8234e-05,6.39e-06,0.0,0 STARLINK-4679,1 53782U 22111K   24203.91699443  .00000639  00000-0  58234-4 0  9992,2 53782  53.2168  68.7278 0001245 100.0679 260.0454 15.08838943103751,6917.884,95.438,540.61,538.887,0.0
